KUIPER-00008            
1 63724U 25088A   26064.83334490 -.00016715  00000+0 -16111-2 0  9990
2 63724  51.8939 104.7622 0009852  86.7680 125.9516 14.91975303  5567
KUIPER-00009            
1 63725U 25088B   26064.46107101  .00000789  00000+0  13280-3 0  9994
2 63725  51.9028 125.3385 0007643  84.0257 276.1576 14.79894934 47152
KUIPER-00010            
1 63726U 25088C   26064.52079258 -.00000197  00000+0  31541-5 0  9999
2 63726  51.9024 101.5275 0000757  85.4285 274.6763 14.79922563 47115
KUIPER-00011            
1 63727U 25088D   26064.68114664 -.00037702  00000+0 -49518-2 0  9991
2 63727  51.9000 108.3793 0000526  89.8250 270.2773 14.79868827 47164
KUIPER-00012            
1 63728U 25088E   26064.83334490 -.00018859  00000+0 -24492-2 0  9996
2 63728  51.8996  92.6310 0000218  49.9820 133.7469 14.79977282  4025
KUIPER-00013            
1 63729U 25088F   26064.46004137  .00017069  00000+0  22583-2 0  9997
2 63729  51.9005 126.8001 0002595  43.6142 316.5025 14.80007865 46942
KUIPER-00014            
1 63730U 25088G   26064.66082359 -.00010085  00000+0 -12961-2 0  9995
2 63730  51.9017 126.8827 0000404   7.8272 352.2697 14.79924535 46779
KUIPER-00015            
1 63731U 25088H   26064.61390943  .00007713  00000+0  95223-3 0  9997
2 63731  51.8986 136.4627 0009705  61.3445 298.8494 14.83609012 47090
KUIPER-00016            
1 63732U 25088J   26063.57786745  .00006402  00000+0  86949-3 0  9990
2 63732  51.9003 134.2029 0006561  62.0170 298.1456 14.79852213 46575
KUIPER-00018            
1 63733U 25088K   26064.83334490 -.00027515  00000+0 -36056-2 0  9990
2 63733  51.9009 117.6193 0001478 119.3808  28.0144 14.79808848  3162
KUIPER-00019            
1 63734U 25088L   26064.40166980  .00000169  00000+0  51175-4 0  9996
2 63734  51.9014 118.0604 0001020  78.0013 282.1064 14.79931963 46877
KUIPER-00020            
1 63735U 25088M   26064.46555062 -.00004045  00000+0 -50225-3 0  9999
2 63735  51.9010 121.7693 0006725  69.7848 290.3837 14.79864574 47034
KUIPER-00021            
1 63736U 25088N   26064.53137617  .00001019  00000+0  16272-3 0  9990
2 63736  51.9013 122.4734 0003548  72.8900 287.2451 14.79929364 46862
KUIPER-00023            
1 63737U 25088P   26064.59783377 -.00000718  00000+0 -64948-4 0  9998
2 63737  51.9006 123.6386 0008345  87.7648 272.4269 14.79894637 47155
KUIPER-00024            
1 63738U 25088Q   26064.13858430 -.00001147  00000+0 -12143-3 0  9998
2 63738  51.9028 113.2339 0000786 107.0936 253.0113 14.79927953 47386
KUIPER-00025            
1 63739U 25088R   26064.45074474  .00006776  00000+0  84301-3 0  9998
2 63739  51.9016 120.2029 0000377  33.3475 326.7512 14.83478668 47170
KUIPER-00027            
1 63740U 25088S   26064.54104841  .00006430  00000+0  87154-3 0  9998
2 63740  51.9008 113.9297 0000794  84.0673 276.0379 14.79940527 47008
